[{"OBJECT_NAME":"STARLINK-35912","OBJECT_ID":"2025-283E","EPOCH":"2026-01-17T23:08:27.172896","MEAN_MOTION":15.30207405,"ECCENTRICITY":0.00016044,"INCLINATION":53.1598,"RA_OF_ASC_NODE":260.081,"ARG_OF_PERICENTER":83.1727,"MEAN_ANOMALY":276.9456,"EPHEMERIS_TYPE":0,"CLASSIFICATION_TYPE":"U","NORAD_CAT_ID":66882,"ELEMENT_SET_NO":999,"REV_AT_EPOCH":807,"BSTAR":0.00094354464,"MEAN_MOTION_DOT":0.00027697,"MEAN_MOTION_DDOT":0},{"OBJECT_NAME":"STARLINK-35947","OBJECT_ID":"2025-283F","EPOCH":"2026-01-17T21:31:21.445536","MEAN_MOTION":15.3018935,"ECCENTRICITY":9.07e-5,"INCLINATION":53.1571,"RA_OF_ASC_NODE":260.3721,"ARG_OF_PERICENTER":71.0721,"MEAN_ANOMALY":289.0378,"EPHEMERIS_TYPE":0,"CLASSIFICATION_TYPE":"U","NORAD_CAT_ID":66883,"ELEMENT_SET_NO":999,"REV_AT_EPOCH":808,"BSTAR":-4.2308433e-5,"MEAN_MOTION_DOT":-1.611e-5,"MEAN_MOTION_DDOT":0},{"OBJECT_NAME":"STARLINK-36057","OBJECT_ID":"2025-283G","EPOCH":"2026-01-17T22:56:17.742624","MEAN_MOTION":15.30200965,"ECCENTRICITY":0.00014028,"INCLINATION":53.1585,"RA_OF_ASC_NODE":260.0291,"ARG_OF_PERICENTER":95.7199,"MEAN_ANOMALY":264.3962,"EPHEMERIS_TYPE":0,"CLASSIFICATION_TYPE":"U","NORAD_CAT_ID":66884,"ELEMENT_SET_NO":999,"REV_AT_EPOCH":807,"BSTAR":0.00038122251,"MEAN_MOTION_DOT":0.00010949,"MEAN_MOTION_DDOT":0},{"OBJECT_NAME":"STARLINK-35954","OBJECT_ID":"2025-283H","EPOCH":"2026-01-17T21:26:47.897952","MEAN_MOTION":15.30191798,"ECCENTRICITY":0.00012035,"INCLINATION":53.1582,"RA_OF_ASC_NODE":260.351,"ARG_OF_PERICENTER":83.0434,"MEAN_ANOMALY":277.0703,"EPHEMERIS_TYPE":0,"CLASSIFICATION_TYPE":"U","NORAD_CAT_ID":66885,"ELEMENT_SET_NO":999,"REV_AT_EPOCH":806,"BSTAR":-1.4538219e-5,"MEAN_MOTION_DOT":-7.9e-6,"MEAN_MOTION_DDOT":0},{"OBJECT_NAME":"STARLINK-35900","OBJECT_ID":"2025-283J","EPOCH":"2026-01-17T22:45:39.295872","MEAN_MOTION":15.30183426,"ECCENTRICITY":0.00012981,"INCLINATION":53.1583,"RA_OF_ASC_NODE":259.9812,"ARG_OF_PERICENTER":84.181,"MEAN_ANOMALY":275.9338,"EPHEMERIS_TYPE":0,"CLASSIFICATION_TYPE":"U","NORAD_CAT_ID":66886,"ELEMENT_SET_NO":999,"REV_AT_EPOCH":807,"BSTAR":0.00072734621,"MEAN_MOTION_DOT":0.00021233,"MEAN_MOTION_DDOT":0},{"OBJECT_NAME":"STARLINK-35925","OBJECT_ID":"2025-283K","EPOCH":"2026-01-17T22:41:05.718912","MEAN_MOTION":15.30186758,"ECCENTRICITY":0.00011732,"INCLINATION":53.1584,"RA_OF_ASC_NODE":259.9614,"ARG_OF_PERICENTER":85.1231,"MEAN_ANOMALY":274.9904,"EPHEMERIS_TYPE":0,"CLASSIFICATION_TYPE":"U","NORAD_CAT_ID":66887,"ELEMENT_SET_NO":999,"REV_AT_EPOCH":807,"BSTAR":0.00060288572,"MEAN_MOTION_DOT":0.00017531,"MEAN_MOTION_DDOT":0},{"OBJECT_NAME":"STARLINK-35919","OBJECT_ID":"2025-283L","EPOCH":"2026-01-17T22:36:32.961888","MEAN_MOTION":15.30217047,"ECCENTRICITY":0.00012757,"INCLINATION":53.1582,"RA_OF_ASC_NODE":259.9401,"ARG_OF_PERICENTER":90.063,"MEAN_ANOMALY":270.0517,"EPHEMERIS_TYPE":0,"CLASSIFICATION_TYPE":"U","NORAD_CAT_ID":66888,"ELEMENT_SET_NO":999,"REV_AT_EPOCH":807,"BSTAR":0.00076585751,"MEAN_MOTION_DOT":0.00022404,"MEAN_MOTION_DDOT":0},{"OBJECT_NAME":"STARLINK-35852","OBJECT_ID":"2025-283M","EPOCH":"2026-01-17T22:31:58.895904","MEAN_MOTION":15.30202641,"ECCENTRICITY":0.00014385,"INCLINATION":53.159,"RA_OF_ASC_NODE":259.9194,"ARG_OF_PERICENTER":84.0582,"MEAN_ANOMALY":276.0583,"EPHEMERIS_TYPE":0,"CLASSIFICATION_TYPE":"U","NORAD_CAT_ID":66889,"ELEMENT_SET_NO":999,"REV_AT_EPOCH":807,"BSTAR":0.00077934322,"MEAN_MOTION_DOT":0.00022795,"MEAN_MOTION_DDOT":0},{"OBJECT_NAME":"STARLINK-35885","OBJECT_ID":"2025-283N","EPOCH":"2026-01-17T22:27:26.029152","MEAN_MOTION":15.30203282,"ECCENTRICITY":0.00013471,"INCLINATION":53.1589,"RA_OF_ASC_NODE":259.8992,"ARG_OF_PERICENTER":93.6118,"MEAN_ANOMALY":266.5037,"EPHEMERIS_TYPE":0,"CLASSIFICATION_TYPE":"U","NORAD_CAT_ID":66890,"ELEMENT_SET_NO":999,"REV_AT_EPOCH":807,"BSTAR":0.00073607508,"MEAN_MOTION_DOT":0.00021507,"MEAN_MOTION_DDOT":0},{"OBJECT_NAME":"STARLINK-35855","OBJECT_ID":"2025-283P","EPOCH":"2026-01-17T22:22:51.773088","MEAN_MOTION":15.30191258,"ECCENTRICITY":5.381e-5,"INCLINATION":53.162,"RA_OF_ASC_NODE":259.8808,"ARG_OF_PERICENTER":53.1653,"MEAN_ANOMALY":306.9397,"EPHEMERIS_TYPE":0,"CLASSIFICATION_TYPE":"U","NORAD_CAT_ID":66891,"ELEMENT_SET_NO":999,"REV_AT_EPOCH":807,"BSTAR":0.00048678507,"MEAN_MOTION_DOT":0.00014082,"MEAN_MOTION_DDOT":0},{"OBJECT_NAME":"STARLINK-35883","OBJECT_ID":"2025-283Q","EPOCH":"2026-01-17T22:18:18.124416","MEAN_MOTION":15.30208325,"ECCENTRICITY":0.00017834,"INCLINATION":53.1607,"RA_OF_ASC_NODE":259.8592,"ARG_OF_PERICENTER":91.07,"MEAN_ANOMALY":269.0505,"EPHEMERIS_TYPE":0,"CLASSIFICATION_TYPE":"U","NORAD_CAT_ID":66892,"ELEMENT_SET_NO":999,"REV_AT_EPOCH":807,"BSTAR":0.00074362603,"MEAN_MOTION_DOT":0.00021735,"MEAN_MOTION_DDOT":0},{"OBJECT_NAME":"STARLINK-36033","OBJECT_ID":"2025-283R","EPOCH":"2026-01-17T23:19:05.359584","MEAN_MOTION":15.30197205,"ECCENTRICITY":0.00010866,"INCLINATION":53.1568,"RA_OF_ASC_NODE":260.125,"ARG_OF_PERICENTER":101.1374,"MEAN_ANOMALY":258.9749,"EPHEMERIS_TYPE":0,"CLASSIFICATION_TYPE":"U","NORAD_CAT_ID":66893,"ELEMENT_SET_NO":999,"REV_AT_EPOCH":807,"BSTAR":0.00054240795,"MEAN_MOTION_DOT":0.00015738,"MEAN_MOTION_DDOT":0},{"OBJECT_NAME":"STARLINK-35718","OBJECT_ID":"2025-283S","EPOCH":"2026-01-17T22:09:10.943712","MEAN_MOTION":15.30178515,"ECCENTRICITY":0.00012041,"INCLINATION":53.1597,"RA_OF_ASC_NODE":259.8188,"ARG_OF_PERICENTER":91.9985,"MEAN_ANOMALY":268.1153,"EPHEMERIS_TYPE":0,"CLASSIFICATION_TYPE":"U","NORAD_CAT_ID":66894,"ELEMENT_SET_NO":999,"REV_AT_EPOCH":807,"BSTAR":0.0006811432,"MEAN_MOTION_DOT":0.00019855,"MEAN_MOTION_DDOT":0},{"OBJECT_NAME":"STARLINK-35971","OBJECT_ID":"2025-283T","EPOCH":"2026-01-17T23:03:53.255520","MEAN_MOTION":15.30186507,"ECCENTRICITY":0.00012235,"INCLINATION":53.1587,"RA_OF_ASC_NODE":260.0557,"ARG_OF_PERICENTER":80.1186,"MEAN_ANOMALY":279.9953,"EPHEMERIS_TYPE":0,"CLASSIFICATION_TYPE":"U","NORAD_CAT_ID":66895,"ELEMENT_SET_NO":999,"REV_AT_EPOCH":807,"BSTAR":0.0003828893,"MEAN_MOTION_DOT":0.00010993,"MEAN_MOTION_DDOT":0},{"OBJECT_NAME":"STARLINK-35791","OBJECT_ID":"2025-283U","EPOCH":"2026-01-17T23:28:02.670816","MEAN_MOTION":15.30186817,"ECCENTRICITY":0.00011168,"INCLINATION":53.1594,"RA_OF_ASC_NODE":259.4503,"ARG_OF_PERICENTER":93.0708,"MEAN_ANOMALY":267.0421,"EPHEMERIS_TYPE":0,"CLASSIFICATION_TYPE":"U","NORAD_CAT_ID":66896,"ELEMENT_SET_NO":999,"REV_AT_EPOCH":808,"BSTAR":1.2789821e-5,"MEAN_MOTION_DOT":2.0e-7,"MEAN_MOTION_DDOT":0},{"OBJECT_NAME":"STARLINK-36079","OBJECT_ID":"2025-283V","EPOCH":"2026-01-17T22:00:03.000096","MEAN_MOTION":15.30192841,"ECCENTRICITY":0.00013594,"INCLINATION":53.1578,"RA_OF_ASC_NODE":260.1959,"ARG_OF_PERICENTER":78.7433,"MEAN_ANOMALY":71.8887,"EPHEMERIS_TYPE":0,"CLASSIFICATION_TYPE":"U","NORAD_CAT_ID":66897,"ELEMENT_SET_NO":999,"REV_AT_EPOCH":603,"BSTAR":-0.00028013402,"MEAN_MOTION_DOT":-8.645e-5,"MEAN_MOTION_DDOT":0},{"OBJECT_NAME":"STARLINK-36065","OBJECT_ID":"2025-283W","EPOCH":"2026-01-17T22:51:44.140608","MEAN_MOTION":15.30183414,"ECCENTRICITY":0.00012649,"INCLINATION":53.158,"RA_OF_ASC_NODE":260.0065,"ARG_OF_PERICENTER":89.4201,"MEAN_ANOMALY":270.6945,"EPHEMERIS_TYPE":0,"CLASSIFICATION_TYPE":"U","NORAD_CAT_ID":66898,"ELEMENT_SET_NO":999,"REV_AT_EPOCH":807,"BSTAR":0.00070248921,"MEAN_MOTION_DOT":0.00020493,"MEAN_MOTION_DDOT":0},{"OBJECT_NAME":"STARLINK-36064","OBJECT_ID":"2025-283X","EPOCH":"2026-01-17T22:48:41.500512","MEAN_MOTION":15.30189919,"ECCENTRICITY":9.839e-5,"INCLINATION":53.1581,"RA_OF_ASC_NODE":259.9919,"ARG_OF_PERICENTER":110.5398,"MEAN_ANOMALY":249.5709,"EPHEMERIS_TYPE":0,"CLASSIFICATION_TYPE":"U","NORAD_CAT_ID":66899,"ELEMENT_SET_NO":999,"REV_AT_EPOCH":807,"BSTAR":0.00041159042,"MEAN_MOTION_DOT":0.00011847,"MEAN_MOTION_DDOT":0},{"OBJECT_NAME":"STARLINK-36074","OBJECT_ID":"2025-283Y","EPOCH":"2026-01-17T22:44:07.552032","MEAN_MOTION":15.30197198,"ECCENTRICITY":0.00010138,"INCLINATION":53.1583,"RA_OF_ASC_NODE":259.971,"ARG_OF_PERICENTER":91.2721,"MEAN_ANOMALY":268.8396,"EPHEMERIS_TYPE":0,"CLASSIFICATION_TYPE":"U","NORAD_CAT_ID":66900,"ELEMENT_SET_NO":999,"REV_AT_EPOCH":807,"BSTAR":2.1654286e-5,"MEAN_MOTION_DOT":2.82e-6,"MEAN_MOTION_DDOT":0},{"OBJECT_NAME":"STARLINK-36043","OBJECT_ID":"2025-283Z","EPOCH":"2026-01-17T22:35:00.732480","MEAN_MOTION":15.30200222,"ECCENTRICITY":3.572e-5,"INCLINATION":53.1589,"RA_OF_ASC_NODE":259.9311,"ARG_OF_PERICENTER":83.6733,"MEAN_ANOMALY":276.4309,"EPHEMERIS_TYPE":0,"CLASSIFICATION_TYPE":"U","NORAD_CAT_ID":66901,"ELEMENT_SET_NO":999,"REV_AT_EPOCH":807,"BSTAR":0.0001321591,"MEAN_MOTION_DOT":3.557e-5,"MEAN_MOTION_DDOT":0},{"OBJECT_NAME":"STARLINK-35983","OBJECT_ID":"2025-283AA","EPOCH":"2026-01-17T22:00:03.000096","MEAN_MOTION":15.30187545,"ECCENTRICITY":0.00012332,"INCLINATION":53.1594,"RA_OF_ASC_NODE":260.0098,"ARG_OF_PERICENTER":76.0598,"MEAN_ANOMALY":167.6464,"EPHEMERIS_TYPE":0,"CLASSIFICATION_TYPE":"U","NORAD_CAT_ID":66902,"ELEMENT_SET_NO":999,"REV_AT_EPOCH":602,"BSTAR":-0.00015341918,"MEAN_MOTION_DOT":-4.898e-5,"MEAN_MOTION_DDOT":0},{"OBJECT_NAME":"STARLINK-36077","OBJECT_ID":"2025-283AB","EPOCH":"2026-01-17T20:51:50.923296","MEAN_MOTION":15.30205889,"ECCENTRICITY":0.00018048,"INCLINATION":53.1592,"RA_OF_ASC_NODE":260.1927,"ARG_OF_PERICENTER":101.9481,"MEAN_ANOMALY":258.1722,"EPHEMERIS_TYPE":0,"CLASSIFICATION_TYPE":"U","NORAD_CAT_ID":66903,"ELEMENT_SET_NO":999,"REV_AT_EPOCH":806,"BSTAR":0.00061603558,"MEAN_MOTION_DOT":0.00017933,"MEAN_MOTION_DDOT":0},{"OBJECT_NAME":"STARLINK-36059","OBJECT_ID":"2025-283AC","EPOCH":"2026-01-17T22:21:20.505312","MEAN_MOTION":15.30213683,"ECCENTRICITY":0.00020907,"INCLINATION":53.1597,"RA_OF_ASC_NODE":259.8689,"ARG_OF_PERICENTER":90.6567,"MEAN_ANOMALY":269.4673,"EPHEMERIS_TYPE":0,"CLASSIFICATION_TYPE":"U","NORAD_CAT_ID":66904,"ELEMENT_SET_NO":999,"REV_AT_EPOCH":807,"BSTAR":0.000651566,"MEAN_MOTION_DOT":0.00018996,"MEAN_MOTION_DDOT":0}]
